{"fetched_at":"2026-03-29T16:36:15Z","count":15609,"tles":[{"name":"ONEWEB-0067","line1":"1 45425U 20020B   26087.30957017  .00000539  00000+0  14840-2 0  9994","line2":"2 45425  87.8913  37.0545 0001978  84.7532 275.3822 13.11417682292136","category":"Other"}]}