{
  "norad_id": 45425,
  "name": "ONEWEB-0067",
  "history": [
    {
      "epoch": "2026-03-28T07:25:46.862688",
      "apogee_km": 1219.1825329855837,
      "perigee_km": 1216.1771720897077,
      "latitude_deg": 65.46659882105111,
      "longitude_deg": -167.78126367996447,
      "semi_major_axis_km": 7595.816852537645,
      "eccentricity": 0.00019783,
      "inclination_deg": 87.8913,
      "raan_deg": 37.0545,
      "arg_perigee_deg": 84.7532,
      "mean_anomaly_deg": 275.3822,
      "mean_motion_rev_day": 13.11417682
    }
  ]
}